IRIDIUM 106             
1 41917U 17003A   26156.37437753  .00000038  00000+0  64171-5 0  9996
2 41917  86.3959  93.4942 0001928  79.5897 280.5516 14.34217638491516
IRIDIUM 103             
1 41918U 17003B   26156.57099678  .00000113  00000+0  33254-4 0  9990
2 41918  86.3960  93.3116 0002462  82.1785 277.9690 14.34218703491563
IRIDIUM 109             
1 41919U 17003C   26156.57734183  .00000036  00000+0  57767-5 0  9998
2 41919  86.3961  93.3683 0002323  85.1013 275.0448 14.34217552491535
IRIDIUM 102             
1 41920U 17003D   26156.54562777  .00000139  00000+0  42471-4 0  9994
2 41920  86.3957  93.3053 0002277  87.0504 273.0952 14.34217173491613
IRIDIUM 105             
1 41921U 17003E   26156.43447088  .00000293  00000+0  97518-4 0  9993
2 41921  86.3970  61.7835 0002465  87.4800 272.6678 14.34224994493451
IRIDIUM 104             
1 41922U 17003F   26156.34900869  .00000056  00000+0  12902-4 0  9996
2 41922  86.3960  93.4300 0002526  84.9977 275.1507 14.34217614491576
IRIDIUM 114             
1 41923U 17003G   26156.56465612  .00000095  00000+0  26925-4 0  9996
2 41923  86.3958  93.3229 0002423  85.0880 275.0592 14.34217936491585
IRIDIUM 108             
1 41924U 17003H   26156.45340734 -.00000647  00000+0 -23821-3 0  9998
2 41924  86.3966  61.6658 0002163  84.9680 275.1762 14.34216576493420
IRIDIUM 112             
1 41925U 17003J   26156.55196890  .00000109  00000+0  31952-4 0  9998
2 41925  86.3957  93.1714 0002377  87.2519 272.8949 14.34218588491602
IRIDIUM 111             
1 41926U 17003K   26156.53928587  .00000047  00000+0  95770-5 0  9993
2 41926  86.3955  93.2467 0002307  84.7560 275.3899 14.34217742491588
IRIDIUM 113             
1 42803U 17039A   26156.44948118  .00000080  00000+0  21428-4 0  9994
2 42803  86.3961 327.0866 0002322  89.6432 270.5030 14.34217218469509
IRIDIUM 123             
1 42804U 17039B   26156.49095958  .00000076  00000+0  20122-4 0  9990
2 42804  86.3974 358.5277 0002122  82.9602 277.1835 14.34217619468276
IRIDIUM 120             
1 42805U 17039C   26156.44313025  .00000264  00000+0  87285-4 0  9996
2 42805  86.3952 326.8734 0002016  93.6595 266.4831 14.34222586469492
IRIDIUM 115             
1 42806U 17039D   26156.47098935  .00000322  00000+0  89757-4 0  9991
2 42806  86.4491 326.9892 0002078  85.2188 274.9250 14.43282388472579
IRIDIUM 118             
1 42807U 17039E   26156.31336763 -.00000018  00000+0 -13318-4 0  9993
2 42807  86.3971 358.6002 0002116  88.7546 271.3892 14.34217275468241
IRIDIUM 117             
1 42808U 17039F   26156.47193211 -.00000007  00000+0 -96542-5 0  9999
2 42808  86.3969 358.4915 0002078  85.3287 274.8146 14.34217442468293
IRIDIUM 126             
1 42809U 17039G   26156.07868979  .00000184  00000+0  58757-4 0  9995
2 42809  86.3976 358.7070 0002264  84.2556 275.8898 14.34217487468217
IRIDIUM 124             
1 42810U 17039H   26156.68213253 -.00001019  00000+0 -30910-3 0  9993
2 42810  86.4471 295.1711 0002080  88.7135 271.4304 14.43277647473454
IRIDIUM 128             
1 42811U 17039J   26156.34850316  .00000016  00000+0 -13874-5 0  9991
2 42811  86.3974  30.0999 0001889  85.1908 274.9504 14.34217586468282
IRIDIUM 121             
1 42812U 17039K   26156.30702492 -.00000035  00000+0 -19641-4 0  9998
2 42812  86.3972 358.6388 0002008  89.3720 270.7706 14.34217255468128
IRIDIUM 133             
1 42955U 17061A   26156.38021000  .00000100  00000+0  28651-4 0  9990
2 42955  86.3980  30.2039 0002140  85.3898 274.7543 14.34215939453089
IRIDIUM 100             
1 42956U 17061B   26156.37387404  .00000023  00000+0  13168-5 0  9995
2 42956  86.3977  30.1255 0002166  85.5809 274.5635 14.34217590453082
IRIDIUM 122             
1 42957U 17061C   26156.41192941  .00000005  00000+0 -52099-5 0  9998
2 42957  86.3974  30.1099 0002095  83.8914 276.2521 14.34217547453091
IRIDIUM 129             
1 42958U 17061D   26156.36753147  .00000071  00000+0  18220-4 0  9993
2 42958  86.3979  30.1957 0002405  89.1917 270.9554 14.34216955453108
IRIDIUM 119             
1 42959U 17061E   26156.40558728  .00000036  00000+0  56667-5 0  9996
2 42959  86.3979  30.1756 0002292  83.6592 276.4865 14.34217433453128
IRIDIUM 107             
1 42960U 17061F   26156.35484522 -.00000053  00000+0 -25958-4 0  9991
2 42960  86.3976  30.2174 0001965  77.0730 283.0686 14.34217404453122
IRIDIUM 132             
1 42961U 17061G   26156.36118875  .00000100  00000+0  28561-4 0  9992
2 42961  86.3979  30.1944 0002228  85.0173 275.1277 14.34217931453126
IRIDIUM 136             
1 42962U 17061H   26156.39289627  .00000228  00000+0  74288-4 0  9998
2 42962  86.3979  30.1879 0002242  84.6335 275.5116 14.34220255453146
IRIDIUM 139             
1 42963U 17061J   26156.05040118  .00000086  00000+0  23685-4 0  9999
2 42963  86.3982  30.3925 0002110  83.6795 276.4641 14.34216619453106
IRIDIUM 125             
1 42964U 17061K   26156.38655946  .00000106  00000+0  30872-4 0  9996
2 42964  86.3982  30.3134 0002514  77.5501 282.5976 14.34218079453161
IRIDIUM 135             
1 43070U 17083A   26156.43045331  .00000050  00000+0  10908-4 0  9992
2 43070  86.3963 326.9318 0002061  93.3844 266.7588 14.34216881442463
