OBJECT_NAME,OBJECT_ID,EPOCH,MEAN_MOTION,ECCENTRICITY,INCLINATION,RA_OF_ASC_NODE,ARG_OF_PERICENTER,MEAN_ANOMALY,EPHEMERIS_TYPE,CLASSIFICATION_TYPE,NORAD_CAT_ID,ELEMENT_SET_NO,REV_AT_EPOCH,BSTAR,MEAN_MOTION_DOT,MEAN_MOTION_DDOT
IRIDIUM 106,2017-003A,2026-06-05T08:59:06.218592,14.34217638,.0001928,86.3959,93.4942,79.5897,280.5516,0,U,41917,999,49151,.64171E-5,.38E-6,0
IRIDIUM 103,2017-003B,2026-06-05T13:42:14.121792,14.34218703,.0002462,86.3960,93.3116,82.1785,277.9690,0,U,41918,999,49156,.33254E-4,.113E-5,0
IRIDIUM 109,2017-003C,2026-06-05T13:51:22.334112,14.34217552,.0002323,86.3961,93.3683,85.1013,275.0448,0,U,41919,999,49153,.57767E-5,.36E-6,0
IRIDIUM 102,2017-003D,2026-06-05T13:05:42.239328,14.34217173,.0002277,86.3957,93.3053,87.0504,273.0952,0,U,41920,999,49161,.42471E-4,.139E-5,0
IRIDIUM 105,2017-003E,2026-06-05T10:25:38.284032,14.34224994,.0002465,86.3970,61.7835,87.4800,272.6678,0,U,41921,999,49345,.97518E-4,.293E-5,0
IRIDIUM 104,2017-003F,2026-06-05T08:22:34.350816,14.34217614,.0002526,86.3960,93.4300,84.9977,275.1507,0,U,41922,999,49157,.12902E-4,.56E-6,0
IRIDIUM 114,2017-003G,2026-06-05T13:33:06.288768,14.34217936,.0002423,86.3958,93.3229,85.0880,275.0592,0,U,41923,999,49158,.26925E-4,.95E-6,0
IRIDIUM 108,2017-003H,2026-06-05T10:52:54.394176,14.34216576,.0002163,86.3966,61.6658,84.9680,275.1762,0,U,41924,999,49342,-.23821E-3,-.647E-5,0
IRIDIUM 112,2017-003J,2026-06-05T13:14:50.112960,14.34218588,.0002377,86.3957,93.1714,87.2519,272.8949,0,U,41925,999,49160,.31952E-4,.109E-5,0
IRIDIUM 111,2017-003K,2026-06-05T12:56:34.299168,14.34217742,.0002307,86.3955,93.2467,84.7560,275.3899,0,U,41926,999,49158,.9577E-5,.47E-6,0
IRIDIUM 113,2017-039A,2026-06-05T10:47:15.173952,14.34217218,.0002322,86.3961,327.0866,89.6432,270.5030,0,U,42803,999,46950,.21428E-4,.8E-6,0
IRIDIUM 123,2017-039B,2026-06-05T11:46:58.907712,14.34217619,.0002122,86.3974,358.5277,82.9602,277.1835,0,U,42804,999,46827,.20122E-4,.76E-6,0
IRIDIUM 120,2017-039C,2026-06-05T10:38:06.453600,14.34222586,.0002016,86.3952,326.8734,93.6595,266.4831,0,U,42805,999,46949,.87285E-4,.264E-5,0
IRIDIUM 115,2017-039D,2026-06-05T11:18:13.479840,14.43282388,.0002078,86.4491,326.9892,85.2188,274.9250,0,U,42806,999,47257,.89757E-4,.322E-5,0
IRIDIUM 118,2017-039E,2026-06-05T07:31:14.963232,14.34217275,.0002116,86.3971,358.6002,88.7546,271.3892,0,U,42807,999,46824,-.13318E-4,-.18E-6,0
IRIDIUM 117,2017-039F,2026-06-05T11:19:34.934304,14.34217442,.0002078,86.3969,358.4915,85.3287,274.8146,0,U,42808,999,46829,-.96542E-5,-.7E-7,0
IRIDIUM 126,2017-039G,2026-06-05T01:53:18.797856,14.34217487,.0002264,86.3976,358.7070,84.2556,275.8898,0,U,42809,999,46821,.58757E-4,.184E-5,0
IRIDIUM 124,2017-039H,2026-06-05T16:22:16.250592,14.43277647,.000208,86.4471,295.1711,88.7135,271.4304,0,U,42810,999,47345,-.3091E-3,-.1019E-4,0
IRIDIUM 128,2017-039J,2026-06-05T08:21:50.673024,14.34217586,.0001889,86.3974,30.0999,85.1908,274.9504,0,U,42811,999,46828,-.13874E-5,.16E-6,0
IRIDIUM 121,2017-039K,2026-06-05T07:22:06.953088,14.34217255,.0002008,86.3972,358.6388,89.3720,270.7706,0,U,42812,999,46812,-.19641E-4,-.35E-6,0
IRIDIUM 133,2017-061A,2026-06-05T09:07:30.144000,14.34215939,.000214,86.3980,30.2039,85.3898,274.7543,0,U,42955,999,45308,.28651E-4,.1E-5,0
IRIDIUM 100,2017-061B,2026-06-05T08:58:22.717056,14.34217590,.0002166,86.3977,30.1255,85.5809,274.5635,0,U,42956,999,45308,.13168E-5,.23E-6,0
IRIDIUM 122,2017-061C,2026-06-05T09:53:10.701024,14.34217547,.0002095,86.3974,30.1099,83.8914,276.2521,0,U,42957,999,45309,-.52099E-5,.5E-7,0
IRIDIUM 129,2017-061D,2026-06-05T08:49:14.719008,14.34216955,.0002405,86.3979,30.1957,89.1917,270.9554,0,U,42958,999,45310,.1822E-4,.71E-6,0
IRIDIUM 119,2017-061E,2026-06-05T09:44:02.740992,14.34217433,.0002292,86.3979,30.1756,83.6592,276.4865,0,U,42959,999,45312,.56667E-5,.36E-6,0
IRIDIUM 107,2017-061F,2026-06-05T08:30:58.627008,14.34217404,.0001965,86.3976,30.2174,77.0730,283.0686,0,U,42960,999,45312,-.25958E-4,-.53E-6,0
IRIDIUM 132,2017-061G,2026-06-05T08:40:06.708000,14.34217931,.0002228,86.3979,30.1944,85.0173,275.1277,0,U,42961,999,45312,.28561E-4,.1E-5,0
IRIDIUM 136,2017-061H,2026-06-05T09:25:46.237728,14.34220255,.0002242,86.3979,30.1879,84.6335,275.5116,0,U,42962,999,45314,.74288E-4,.228E-5,0
IRIDIUM 139,2017-061J,2026-06-05T01:12:34.661952,14.34216619,.000211,86.3982,30.3925,83.6795,276.4641,0,U,42963,999,45310,.23685E-4,.86E-6,0
IRIDIUM 125,2017-061K,2026-06-05T09:16:38.737344,14.34218079,.0002514,86.3982,30.3134,77.5501,282.5976,0,U,42964,999,45316,.30872E-4,.106E-5,0
IRIDIUM 135,2017-083A,2026-06-05T10:19:51.165984,14.34216881,.0002061,86.3963,326.9318,93.3844,266.7588,0,U,43070,999,44246,.10908E-4,.5E-6,0
